{"type": "FeatureCollection", "features": [ {"type": "Feature", "properties": {"norad_id": 38552, "name": "METEOSAT-10 (MSG-3)", "group": "weather", "lat": -1.8280748944233427, "lon": 35.64659856250088, "alt_km": 35787.40575633148, "timestamp": "2025-12-02T21:34:00.915470+00:00", "meta": {"OBJECT_NAME": "METEOSAT-10 (MSG-3)", "OBJECT_ID": "2012-035B", "EPOCH": "2025-12-02T01:48:01.931904", "MEAN_MOTION": 1.002722, "ECCENTRICITY": 6.876e-05, "INCLINATION": 4.2018, "RA_OF_ASC_NODE": 61.7375, "ARG_OF_PERICENTER": 218.9493, "MEAN_ANOMALY": 177.6056, "EPHEMERIS_TYPE": 0, "CLASSIFICATION_TYPE": "U", "NORAD_CAT_ID": 38552, "ELEMENT_SET_NO": 999, "REV_AT_EPOCH": 4888, "BSTAR": 0, "MEAN_MOTION_DOT": 1.3e-07, "MEAN_MOTION_DDOT": 0}, "tle": {"line1": "1 38552U 12035B   25336.07502236  .00000013  00000+0  00000+0 0  9990", "line2": "2 38552   4.2018  61.7375 0000687 218.9493 177.6056  1.00272200 48880"}}, "geometry": {"type": "Point", "coordinates": [35.64659856250088, -1.8280748944233427]}}, {"type": "Feature", "properties": {"norad_id": 38771, "name": "METOP-B", "group": "weather", "lat": 20.99462102660742, "lon": -149.61505665338316, "alt_km": 818.7155712243302, "timestamp": "2025-12-02T21:34:00.915482+00:00", "meta": {"OBJECT_NAME": "METOP-B", "OBJECT_ID": "2012-049A", "EPOCH": "2025-12-02T10:41:11.130144", "MEAN_MOTION": 14.2140212, "ECCENTRICITY": 0.0002443, "INCLINATION": 98.6814, "RA_OF_ASC_NODE": 26.5779, "ARG_OF_PERICENTER": 167.5682, "MEAN_ANOMALY": 192.5556, "EPHEMERIS_TYPE": 0, "CLASSIFICATION_TYPE": "U", "NORAD_CAT_ID": 38771, "ELEMENT_SET_NO": 999, "REV_AT_EPOCH": 68531, "BSTAR": 0.00011431, "MEAN_MOTION_DOT": 2.06e-06, "MEAN_MOTION_DDOT": 0}, "tle": {"line1": "1 38771U 12049A   25336.44526771  .00000206  00000+0  11431-3 0  9997", "line2": "2 38771  98.6814  26.5779 0002443 167.5682 192.5556 14.21402120685311"}}, "geometry": {"type": "Point", "coordinates": [-149.61505665338316, 20.99462102660742]}}, {"type": "Feature", "properties": {"norad_id": 39216, "name": "INSAT-3D", "group": "weather", "lat": 1.382747704285669, "lon": 164.96533658201665, "alt_km": 35783.08881301413, "timestamp": "2025-12-02T21:34:00.915494+00:00", "meta": {"OBJECT_NAME": "INSAT-3D", "OBJECT_ID": "2013-038B", "EPOCH": "2025-12-02T08:53:38.455008", "MEAN_MOTION": 1.00274383, "ECCENTRICITY": 0.0001714, "INCLINATION": 1.4156, "RA_OF_ASC_NODE": 85.1105, "ARG_OF_PERICENTER": 152.4381, "MEAN_ANOMALY": 96.8446, "EPHEMERIS_TYPE": 0, "CLASSIFICATION_TYPE": "U", "NORAD_CAT_ID": 39216, "ELEMENT_SET_NO": 999, "REV_AT_EPOCH": 4510, "BSTAR": 0, "MEAN_MOTION_DOT": -3.18e-06, "MEAN_MOTION_DDOT": 0}, "tle": {"line1": "1 39216U 13038B   25336.37058397 -.00000318  00000+0  00000+0 0  9998", "line2": "2 39216   1.4156  85.1105 0001714 152.4381  96.8446  1.00274383 45102"}}, "geometry": {"type": "Point", "coordinates": [164.96533658201665, 1.382747704285669]}}, {"type": "Feature", "properties": {"norad_id": 39260, "name": "FENGYUN 3C", "group": "weather", "lat": -66.51180309272686, "lon": 114.99251061169839, "alt_km": 837.9627028691029, "timestamp": "2025-12-02T21:34:00.915505+00:00", "meta": {"OBJECT_NAME": "FENGYUN 3C", "OBJECT_ID": "2013-052A", "EPOCH": "2025-12-02T13:36:49.950720", "MEAN_MOTION": 14.15691131, "ECCENTRICITY": 0.0013792, "INCLINATION": 98.4753, "RA_OF_ASC_NODE": 314.7439, "ARG_OF_PERICENTER": 226.6603, "MEAN_ANOMALY": 133.3423, "EPHEMERIS_TYPE": 0, "CLASSIFICATION_TYPE": "U", "NORAD_CAT_ID": 39260, "ELEMENT_SET_NO": 999, "REV_AT_EPOCH": 63074, "BSTAR": 0.00010442, "MEAN_MOTION_DOT": 1.64e-06, "MEAN_MOTION_DDOT": 0}, "tle": {"line1": "1 39260U 13052A   25336.56724480  .00000164  00000+0  10442-3 0  9990", "line2": "2 39260  98.4753 314.7439 0013792 226.6603 133.3423 14.15691131630747"}}, "geometry": {"type": "Point", "coordinates": [114.99251061169839, -66.51180309272686]}}, {"type": "Feature", "properties": {"norad_id": 40069, "name": "METEOR-M 2", "group": "weather", "lat": 27.529570714737112, "lon": -49.603861827141124, "alt_km": 822.2605472492496, "timestamp": "2025-12-02T21:34:00.915517+00:00", "meta": {"OBJECT_NAME": "METEOR-M 2", "OBJECT_ID": "2014-037A", "EPOCH": "2025-12-02T11:17:57.914016", "MEAN_MOTION": 14.21380031, "ECCENTRICITY": 0.000468, "INCLINATION": 98.4892, "RA_OF_ASC_NODE": 314.4496, "ARG_OF_PERICENTER": 244.2374, "MEAN_ANOMALY": 115.8321, "EPHEMERIS_TYPE": 0, "CLASSIFICATION_TYPE": "U", "NORAD_CAT_ID": 40069, "ELEMENT_SET_NO": 999, "REV_AT_EPOCH": 59137, "BSTAR": 0.00011474, "MEAN_MOTION_DOT": 2.09e-06, "MEAN_MOTION_DDOT": 0}, "tle": {"line1": "1 40069U 14037A   25336.47080919  .00000209  00000+0  11474-3 0  9991", "line2": "2 40069  98.4892 314.4496 0004680 244.2374 115.8321 14.21380031591375"}}, "geometry": {"type": "Point", "coordinates": [-49.603861827141124, 27.529570714737112]}}, {"type": "Feature", "properties": {"norad_id": 40267, "name": "HIMAWARI-8", "group": "weather", "lat": -0.018683675947503982, "lon": 176.14028708592917, "alt_km": 35788.1125188488, "timestamp": "2025-12-02T21:34:00.915529+00:00", "meta": {"OBJECT_NAME": "HIMAWARI-8", "OBJECT_ID": "2014-060A", "EPOCH": "2025-12-02T09:36:51.761376", "MEAN_MOTION": 1.00270839, "ECCENTRICITY": 0.0001288, "INCLINATION": 0.0438, "RA_OF_ASC_NODE": 142.2785, "ARG_OF_PERICENTER": 142.4407, "MEAN_ANOMALY": 71.6851, "EPHEMERIS_TYPE": 0, "CLASSIFICATION_TYPE": "U", "NORAD_CAT_ID": 40267, "ELEMENT_SET_NO": 999, "REV_AT_EPOCH": 4078, "BSTAR": 0, "MEAN_MOTION_DOT": -2.55e-06, "MEAN_MOTION_DDOT": 0}, "tle": {"line1": "1 40267U 14060A   25336.40059909 -.00000255  00000+0  00000+0 0  9996", "line2": "2 40267   0.0438 142.2785 0001288 142.4407  71.6851  1.00270839 40783"}}, "geometry": {"type": "Point", "coordinates": [176.14028708592917, -0.018683675947503982]}}, {"type": "Feature", "properties": {"norad_id": 40367, "name": "FENGYUN 2G", "group": "weather", "lat": 4.453779070910352, "lon": 135.079180200056, "alt_km": 35795.306407959026, "timestamp": "2025-12-02T21:34:00.915541+00:00", "meta": {"OBJECT_NAME": "FENGYUN 2G", "OBJECT_ID": "2014-090A", "EPOCH": "2025-12-01T19:25:27.039072", "MEAN_MOTION": 1.00268232, "ECCENTRICITY": 0.00030118, "INCLINATION": 5.1381, "RA_OF_ASC_NODE": 75.2239, "ARG_OF_PERICENTER": 193.0179, "MEAN_ANOMALY": 193.7823, "EPHEMERIS_TYPE": 0, "CLASSIFICATION_TYPE": "U", "NORAD_CAT_ID": 40367, "ELEMENT_SET_NO": 999, "REV_AT_EPOCH": 4002, "BSTAR": 0, "MEAN_MOTION_DOT": -2.82e-06, "MEAN_MOTION_DDOT": 0}, "tle": {"line1": "1 40367U 14090A   25335.80934073 -.00000282  00000+0  00000+0 0  9997", "line2": "2 40367   5.1381  75.2239 0003011 193.0179 193.7823  1.00268232 40026"}}, "geometry": {"type": "Point", "coordinates": [135.079180200056, 4.453779070910352]}}, {"type": "Feature", "properties": {"norad_id": 40732, "name": "METEOSAT-11 (MSG-4)", "group": "weather", "lat": -1.208844774020872, "lon": 44.96288206215106, "alt_km": 35785.66862893356, "timestamp": "2025-12-02T21:34:00.915554+00:00", "meta": {"OBJECT_NAME": "METEOSAT-11 (MSG-4)", "OBJECT_ID": "2015-034A", "EPOCH": "2025-12-02T06:58:49.133280", "MEAN_MOTION": 1.00277446, "ECCENTRICITY": 2.54e-05, "INCLINATION": 2.7095, "RA_OF_ASC_NODE": 72.0273, "ARG_OF_PERICENTER": 161.6934, "MEAN_ANOMALY": 311.8293, "EPHEMERIS_TYPE": 0, "CLASSIFICATION_TYPE": "U", "NORAD_CAT_ID": 40732, "ELEMENT_SET_NO": 999, "REV_AT_EPOCH": 524, "BSTAR": 0, "MEAN_MOTION_DOT": 8.4e-07, "MEAN_MOTION_DDOT": 0}, "tle": {"line1": "1 40732U 15034A   25336.29084645  .00000084  00000+0  00000+0 0  9996", "line2": "2 40732   2.7095  72.0273 0000254 161.6934 311.8293  1.00277446  5242"}}, "geometry": {"type": "Point", "coordinates": [44.96288206215106, -1.208844774020872]}}, {"type": "Feature", "properties": {"norad_id": 41105, "name": "ELEKTRO-L 2", "group": "weather", "lat": -4.856767348421559, "lon": 21.166751031047266, "alt_km": 35793.339531499434, "timestamp": "2025-12-02T21:34:00.915579+00:00", "meta": {"OBJECT_NAME": "ELEKTRO-L 2", "OBJECT_ID": "2015-074A", "EPOCH": "2025-12-02T01:43:47.338752", "MEAN_MOTION": 1.00269907, "ECCENTRICITY": 0.00039368, "INCLINATION": 6.1965, "RA_OF_ASC_NODE": 72.9528, "ARG_OF_PERICENTER": 196.8313, "MEAN_ANOMALY": 172.831, "EPHEMERIS_TYPE": 0, "CLASSIFICATION_TYPE": "U", "NORAD_CAT_ID": 41105, "ELEMENT_SET_NO": 999, "REV_AT_EPOCH": 3653, "BSTAR": 0, "MEAN_MOTION_DOT": -9.8e-07, "MEAN_MOTION_DDOT": 0}, "tle": {"line1": "1 41105U 15074A   25336.07207568 -.00000098  00000+0  00000+0 0  9998", "line2": "2 41105   6.1965  72.9528 0003936 196.8313 172.8310  1.00269907 36538"}}, "geometry": {"type": "Point", "coordinates": [21.166751031047266, -4.856767348421559]}}, {"type": "Feature", "properties": {"norad_id": 41752, "name": "INSAT-3DR", "group": "weather", "lat": 0.03659973133806048, "lon": 109.4482889097743, "alt_km": 35843.507742855356, "timestamp": "2025-12-02T21:34:00.915594+00:00", "meta": {"OBJECT_NAME": "INSAT-3DR", "OBJECT_ID": "2016-054A", "EPOCH": "2025-12-02T02:08:59.925408", "MEAN_MOTION": 1.00269631, "ECCENTRICITY": 0.00143758, "INCLINATION": 0.0638, "RA_OF_ASC_NODE": 89.7219, "ARG_OF_PERICENTER": 179.0448, "MEAN_ANOMALY": 268.7222, "EPHEMERIS_TYPE": 0, "CLASSIFICATION_TYPE": "U", "NORAD_CAT_ID": 41752, "ELEMENT_SET_NO": 999, "REV_AT_EPOCH": 3384, "BSTAR": 0, "MEAN_MOTION_DOT": -5.6e-07, "MEAN_MOTION_DDOT": 0}, "tle": {"line1": "1 41752U 16054A   25336.08958247 -.00000056  00000+0  00000+0 0  9997", "line2": "2 41752   0.0638  89.7219 0014375 179.0448 268.7222  1.00269631 33842"}}, "geometry": {"type": "Point", "coordinates": [109.4482889097743, 0.03659973133806048]}}]}